ONEWEB-0683             
1 56719U 23068K   24252.87235840 -.00000075  00000+0 -23348-3 0  9995
2 56719  87.9082  27.7885 0002002  91.3875 268.7484 13.15546593 64447
ONEWEB-0684             
1 56720U 23068L   24252.88025982 -.00000164  00000+0 -46860-3 0  9995
2 56720  87.9085  27.8638 0002416 137.4115 222.7203 13.15549972 64271
ONEWEB-0686             
1 56721U 23068M   24252.81353208  .00000174  00000+0  42260-3 0  9993
2 56721  87.9169 357.5383 0001909 102.3290 257.8055 13.16591156 66667
ONEWEB-0694             
1 56722U 23068N   24252.84914662 -.00000015  00000+0 -72520-4 0  9993
2 56722  87.9166 357.4497 0002069  90.3262 269.8106 13.16590469 66726
ONEWEB-0696             
1 56723U 23068P   24252.91354940  .00000182  00000+0  44863-3 0  9990
2 56723  87.9086  27.8316 0001495 104.2226 255.9070 13.15550915 64391
ONEWEB-0703             
1 56724U 23068Q   24252.92306268  .00000052  00000+0  10346-3 0  9997
2 56724  87.9083  27.8502 0000980 143.2072 216.9126 13.15547814 64287
ONEWEB-0721             
1 56725U 23068R   24252.64205898 -.00005791  00000+0 -66538-3 0  9995
2 56725  86.6744 301.1663 0009725 351.2721   8.8333 14.86098186 70908
